[{"OBJECT_NAME":"KHALIFASAT","OBJECT_ID":"2018-084F","EPOCH":"2026-03-09T22:37:07.705056","MEAN_MOTION":15.0097364,"ECCENTRICITY":0.00062701,"INCLINATION":98.0864,"RA_OF_ASC_NODE":247.4233,"ARG_OF_PERICENTER":83.8573,"MEAN_ANOMALY":276.3364,"EPHEMERIS_TYPE":0,"CLASSIFICATION_TYPE":"U","NORAD_CAT_ID":43676,"ELEMENT_SET_NO":999,"REV_AT_EPOCH":40088,"BSTAR":0.00043724412,"MEAN_MOTION_DOT":5.516e-5,"MEAN_MOTION_DDOT":0},{"OBJECT_NAME":"STARLINK-35794","OBJECT_ID":"2025-298L","EPOCH":"2026-03-09T22:40:21.040608","MEAN_MOTION":14.99140238,"ECCENTRICITY":0.000246,"INCLINATION":70.0018,"RA_OF_ASC_NODE":13.8954,"ARG_OF_PERICENTER":239.7803,"MEAN_ANOMALY":120.3113,"EPHEMERIS_TYPE":0,"CLASSIFICATION_TYPE":"U","NORAD_CAT_ID":67085,"ELEMENT_SET_NO":999,"REV_AT_EPOCH":1325,"BSTAR":0.00057556911,"MEAN_MOTION_DOT":6.926e-5,"MEAN_MOTION_DDOT":0}]
